NORAD_CAT_ID,OBJECT_NAME,OBJECT_TYPE,EPOCH,MEAN_MOTION,ECCENTRICITY,INCLINATION,RA_OF_ASC_NODE,ARG_OF_PERICENTER,MEAN_ANOMALY,BSTAR,MEAN_MOTION_DOT,MEAN_MOTION_DDOT,TLE_LINE0,TLE_LINE1,TLE_LINE2,SEMIMAJOR_AXIS,PERIOD,APOGEE,PERIGEE,DECAYED
54794.0,STARLINK-5392,PAYLOAD,2023-04-19 16:51:32,15.15579015,0.0007015,53.2138,97.9109,48.9956,311.1645,0.0013013,0.0002478,0.0,0 STARLINK-5392,1 54794U 22175AN  23109.70245527  .00024780  00000-0  13013-2 0  9994,2 54794  53.2138  97.9109 0007015  48.9956 311.1645 15.15579015 20688,6897.358,95.013,524.062,514.385,0.0
54794.0,STARLINK-5392,PAYLOAD,2023-04-20 00:46:20,15.15600844,0.0007021,53.214,96.415,50.0821,310.079,0.0014937,0.00028523,0.0,0 STARLINK-5392,1 54794U 22175AN  23110.03217850  .00028523  00000-0  14937-2 0  9995,2 54794  53.2140  96.4150 0007021  50.0821 310.0790 15.15600844 18572,6897.292,95.012,524.0,514.314,0.0
54794.0,STARLINK-5392,PAYLOAD,2023-04-20 05:31:12,15.15607658,0.0007065,53.2141,95.5177,50.3173,309.8444,0.0012206,0.00023238,0.0,0 STARLINK-5392,1 54794U 22175AN  23110.23001059  .00023238  00000-0  12206-2 0  9994,2 54794  53.2141  95.5177 0007065  50.3173 309.8444 15.15607658 20769,6897.271,95.011,524.009,514.263,0.0
54794.0,STARLINK-5392,PAYLOAD,2023-04-21 05:15:34,15.15656686,0.0007099,53.215,91.0305,53.04,307.1244,0.0011819,0.00022521,0.0,0 STARLINK-5392,1 54794U 22175AN  23111.21915271  .00022521  00000-0  11819-2 0  9996,2 54794  53.2150  91.0305 0007099  53.0400 307.1244 15.15656686 18753,6897.123,95.008,523.884,514.091,0.0
54794.0,STARLINK-5392,PAYLOAD,2023-04-21 22:40:05,15.15696274,0.0007043,53.2154,87.7397,55.1865,304.9792,0.0013714,0.00026225,0.0,0 STARLINK-5392,1 54794U 22175AN  23111.94450321  .00026225  00000-0  13714-2 0  9997,2 54794  53.2154  87.7397 0007043  55.1865 304.9792 15.15696274 21021,6897.003,95.006,523.725,514.01,0.0
54794.0,STARLINK-5392,PAYLOAD,2023-04-22 04:59:53,15.15712014,0.0007059,53.2158,86.543,56.0677,304.0989,0.0014167,0.00027117,0.0,0 STARLINK-5392,1 54794U 22175AN  23112.20826170  .00027117  00000-0  14167-2 0  9990,2 54794  53.2158  86.5430 0007059  56.0677 304.0989 15.15712014 18901,6896.955,95.005,523.688,513.951,0.0
54794.0,STARLINK-5392,PAYLOAD,2023-04-23 07:54:03,15.15775037,0.0007007,53.2165,81.457,59.2642,300.9043,0.0013229,0.0002534,0.0,0 STARLINK-5392,1 54794U 22175AN  23113.32920664  .00025340  00000-0  13229-2 0  9991,2 54794  53.2165  81.4570 0007007  59.2642 300.9043 15.15775037 21238,6896.764,95.001,523.461,513.796,0.0
54794.0,STARLINK-5392,PAYLOAD,2023-04-24 04:28:21,15.15895876,0.0006949,53.217,77.5677,62.546,297.6241,0.0057063,0.00112049,0.0,0 STARLINK-5392,1 54794U 22175AN  23114.18636353  .00112049  00000-0  57063-2 0  9992,2 54794  53.2170  77.5677 0006949  62.5460 297.6241 15.15895876 19207,6896.397,94.993,523.054,513.47,0.0
54794.0,STARLINK-5392,PAYLOAD,2023-04-24 06:03:18,15.15907872,0.000694,53.2171,77.2681,62.6332,297.5369,0.0057554,0.0011307,0.0,0 STARLINK-5392,1 54794U 22175AN  23114.25229420  .00113070  00000-0  57554-2 0  9993,2 54794  53.2171  77.2681 0006940  62.6332 297.5369 15.15907872 21371,6896.361,94.993,523.012,513.44,0.0
54794.0,STARLINK-5392,PAYLOAD,2023-04-25 04:12:27,15.15953737,0.0006916,53.2171,73.0794,65.6769,294.4948,0.0017837,0.00034494,0.0,0 STARLINK-5392,1 54794U 22175AN  23115.17531974  .00034494  00000-0  17837-2 0  9997,2 54794  53.2171  73.0794 0006916  65.6769 294.4948 15.15953737 19355,6896.222,94.99,522.856,513.317,0.0
54794.0,STARLINK-5392,PAYLOAD,2023-04-25 05:47:23,15.15958735,0.0006927,53.2173,72.7801,65.8992,294.2727,0.001728,0.00033407,0.0,0 STARLINK-5392,1 54794U 22175AN  23115.24124837  .00033407  00000-0  17280-2 0  9996,2 54794  53.2173  72.7801 0006927  65.8992 294.2727 15.15958735 21522,6896.206,94.989,522.848,513.294,0.0
54794.0,STARLINK-5392,PAYLOAD,2023-04-26 05:31:25,15.16009802,0.0006857,53.2174,68.2926,69.6872,290.486,0.001361,0.00026258,0.0,0 STARLINK-5392,1 54794U 22175AN  23116.23016169  .00026258  00000-0  13610-2 0  9993,2 54794  53.2174  68.2926 0006857  69.6872 290.4860 15.16009802 21677,6896.052,94.986,522.645,513.188,0.0
54794.0,STARLINK-5392,PAYLOAD,2023-04-27 05:15:24,15.16072369,0.0006777,53.217,63.804,72.6057,287.5679,0.0015989,0.00030978,0.0,0 STARLINK-5392,1 54794U 22175AN  23117.21903709  .00030978  00000-0  15989-2 0  9992,2 54794  53.2170  63.8040 0006777  72.6057 287.5679 15.16072369 19660,6895.862,94.982,522.4,513.054,0.0
54794.0,STARLINK-5392,PAYLOAD,2023-04-28 03:24:24,15.1615107,0.0006991,53.2162,59.6145,86.9967,273.1828,0.0013428,0.00026007,0.0,0 STARLINK-5392,1 54794U 22175AN  23118.14194520  .00026007  00000-0  13428-2 0  9992,2 54794  53.2162  59.6145 0006991  86.9967 273.1828 15.16151070 19806,6895.623,94.977,522.309,512.667,0.0
54794.0,STARLINK-5392,PAYLOAD,2023-04-28 12:53:56,15.1617861,0.0006217,53.2158,57.8202,79.4684,280.7012,0.0013171,0.00025519,0.0,0 STARLINK-5392,1 54794U 22175AN  23118.53746130  .00025519  00000-0  13171-2 0  9997,2 54794  53.2158  57.8202 0006217  79.4684 280.7012 15.16178610 22025,6895.54,94.976,521.692,513.118,0.0
54794.0,STARLINK-5392,PAYLOAD,2023-04-29 04:43:10,15.16228372,0.0006681,53.2149,54.8245,79.8194,280.3555,0.001955,0.00038154,0.0,0 STARLINK-5392,1 54794U 22175AN  23119.19664415  .00038154  00000-0  19550-2 0  9991,2 54794  53.2149  54.8245 0006681  79.8194 280.3555 15.16228372 19962,6895.389,94.973,521.861,512.647,0.0
54794.0,STARLINK-5392,PAYLOAD,2023-04-29 06:18:05,15.16233317,0.0006677,53.2151,54.5256,80.2222,279.9527,0.0019319,0.00037702,0.0,0 STARLINK-5392,1 54794U 22175AN  23119.26256099  .00037702  00000-0  19319-2 0  9995,2 54794  53.2151  54.5256 0006677  80.2222 279.9527 15.16233317 22138,6895.374,94.972,521.843,512.635,0.0
54794.0,STARLINK-5392,PAYLOAD,2023-04-30 06:01:50,15.16320134,0.000658,53.2147,50.036,83.9407,276.2338,0.0020729,0.00040593,0.0,0 STARLINK-5392,1 54794U 22175AN  23120.25128132  .00040593  00000-0  20729-2 0  9991,2 54794  53.2147  50.0360 0006580  83.9407 276.2338 15.16320134 20129,6895.111,94.967,521.513,512.439,0.0
54794.0,STARLINK-5392,PAYLOAD,2023-05-01 04:10:36,15.16394516,0.0006525,53.2151,45.8448,87.013,273.1612,0.0019797,0.00038827,0.0,0 STARLINK-5392,1 54794U 22175AN  23121.17403827  .00038827  00000-0  19797-2 0  9990,2 54794  53.2151  45.8448 0006525  87.0130 273.1612 15.16394516 22421,6894.885,94.962,521.249,512.251,0.0
54794.0,STARLINK-5392,PAYLOAD,2023-05-02 03:54:13,15.16483279,0.0006473,53.2155,41.3542,89.9179,270.2559,0.002442,0.0004815,0.0,0 STARLINK-5392,1 54794U 22175AN  23122.16265563  .00048150  00000-0  24420-2 0  9992,2 54794  53.2155  41.3542 0006473  89.9179 270.2559 15.16483279 20417,6894.616,94.957,520.944,512.018,0.0
54794.0,STARLINK-5392,PAYLOAD,2023-05-03 11:32:13,15.16603898,0.0006258,53.2155,35.366,96.6199,263.5509,0.0021445,0.00042357,0.0,0 STARLINK-5392,1 54794U 22175AN  23123.48071648  .00042357  00000-0  21445-2 0  9994,2 54794  53.2155  35.3660 0006258  96.6199 263.5509 15.16603898 22771,6894.251,94.949,520.43,511.801,0.0
54794.0,STARLINK-5392,PAYLOAD,2023-05-03 17:51:48,15.1662694,0.0006252,53.2153,34.1686,97.0816,263.0891,0.0021089,0.00041673,0.0,0 STARLINK-5392,1 54794U 22175AN  23123.74431671  .00041673  00000-0  21089-2 0  9993,2 54794  53.2153  34.1686 0006252  97.0816 263.0891 15.16626940 20656,6894.181,94.948,520.356,511.735,0.0
54794.0,STARLINK-5392,PAYLOAD,2023-05-04 03:21:10,15.16668524,0.0006246,53.2153,32.3729,97.327,262.8436,0.0023454,0.00046467,0.0,0 STARLINK-5392,1 54794U 22175AN  23124.13970764  .00046467  00000-0  23454-2 0  9992,2 54794  53.2153  32.3729 0006246  97.3270 262.8436 15.16668524 20717,6894.055,94.945,520.226,511.614,0.0
54794.0,STARLINK-5392,PAYLOAD,2023-05-04 11:15:38,15.16705551,0.0006209,53.2156,30.876,98.3339,261.8361,0.0025478,0.00050586,0.0,0 STARLINK-5392,1 54794U 22175AN  23124.46919175  .00050586  00000-0  25478-2 0  9992,2 54794  53.2156  30.8760 0006209  98.3339 261.8361 15.16705551 22927,6893.943,94.943,520.088,511.527,0.0
54794.0,STARLINK-5392,PAYLOAD,2023-05-04 17:35:11,15.16731528,0.0006211,53.2156,29.6782,99.2301,260.9397,0.0024911,0.00049483,0.0,0 STARLINK-5392,1 54794U 22175AN  23124.73277420  .00049483  00000-0  24911-2 0  9997,2 54794  53.2156  29.6782 0006211  99.2301 260.9397 15.16731528 22965,6893.864,94.941,520.011,511.447,0.0
54794.0,STARLINK-5392,PAYLOAD,2023-05-05 03:04:31,15.16772024,0.000614,53.2157,27.8817,100.3512,259.8176,0.0025133,0.00049988,0.0,0 STARLINK-5392,1 54794U 22175AN  23125.12813857  .00049988  00000-0  25133-2 0  9998,2 54794  53.2157  27.8817 0006140 100.3512 259.8176 15.16772024 20869,6893.741,94.938,519.839,511.373,0.0
54794.0,STARLINK-5392,PAYLOAD,2023-05-05 23:38:00,15.16858973,0.0006025,53.2161,23.9888,102.9541,257.2127,0.0025776,0.00051412,0.0,0 STARLINK-5392,1 54794U 22175AN  23125.98472617  .00051412  00000-0  25776-2 0  9995,2 54794  53.2161  23.9888 0006025 102.9541 257.2127 15.16858973 23152,6893.478,94.933,519.496,511.189,0.0
54794.0,STARLINK-5392,PAYLOAD,2023-05-07 02:30:54,15.16993109,0.0005933,53.2168,18.8972,107.7037,252.4607,0.0030873,0.00061968,0.0,0 STARLINK-5392,1 54794U 22175AN  23127.10479872  .00061968  00000-0  30873-2 0  9992,2 54794  53.2168  18.8972 0005933 107.7037 252.4607 15.16993109 21166,6893.071,94.925,519.026,510.847,0.0
54794.0,STARLINK-5392,PAYLOAD,2023-05-07 21:29:21,15.17074024,0.0005781,53.2169,15.3036,109.6699,250.4921,0.0029353,0.00059013,0.0,0 STARLINK-5392,1 54794U 22175AN  23127.89538200  .00059013  00000-0  29353-2 0  9998,2 54794  53.2169  15.3036 0005781 109.6699 250.4921 15.17074024 23443,6892.826,94.92,518.676,510.706,0.0
54794.0,STARLINK-5392,PAYLOAD,2023-05-07 23:04:13,15.1708267,0.0005819,53.2171,15.0036,110.5228,249.6392,0.0030721,0.00061817,0.0,0 STARLINK-5392,1 54794U 22175AN  23127.96126165  .00061817  00000-0  30721-2 0  9995,2 54794  53.2171  15.0036 0005819 110.5228 249.6392 15.17082670 21293,6892.8,94.919,518.676,510.654,0.0
